{"type": "FeatureCollection", "features": [ {"type": "Feature", "properties": {"norad_id": 30358, "name": "FENGYUN 1C DEB", "group": "fengyun-1c-debris", "lat": -12.590308922390374, "lon": 179.15900899071875, "alt_km": 879.8712087124177, "timestamp": "2025-12-14T03:55:53.063257+00:00", "meta": {"OBJECT_NAME": "FENGYUN 1C DEB", "OBJECT_ID": "1999-025ABV", "EPOCH": "2025-12-13T01:33:00.989856", "MEAN_MOTION": 14.20673908, "ECCENTRICITY": 0.00826912, "INCLINATION": 98.5542, "RA_OF_ASC_NODE": 176.1687, "ARG_OF_PERICENTER": 198.6373, "MEAN_ANOMALY": 289.6068, "EPHEMERIS_TYPE": 0, "CLASSIFICATION_TYPE": "U", "NORAD_CAT_ID": 30358, "ELEMENT_SET_NO": 999, "REV_AT_EPOCH": 96922, "BSTAR": 0.0027627328, "MEAN_MOTION_DOT": 6.122e-05, "MEAN_MOTION_DDOT": 0}, "tle": {"line1": "1 30358U 99025ABV 25347.06459479  .00006122  00000+0  27627-2 0  9995", "line2": "2 30358  98.5542 176.1687 0082691 198.6373 289.6068 14.20673908969220"}}, "geometry": {"type": "Point", "coordinates": [179.15900899071875, -12.590308922390374]}}, {"type": "Feature", "properties": {"norad_id": 30359, "name": "FENGYUN 1C DEB", "group": "fengyun-1c-debris", "lat": -48.79137749403767, "lon": -19.369608988367897, "alt_km": 954.2868395495225, "timestamp": "2025-12-14T03:55:53.063267+00:00", "meta": {"OBJECT_NAME": "FENGYUN 1C DEB", "OBJECT_ID": "1999-025ABW", "EPOCH": "2025-12-12T18:05:36.129696", "MEAN_MOTION": 13.9400044, "ECCENTRICITY": 0.01453362, "INCLINATION": 101.6274, "RA_OF_ASC_NODE": 172.4596, "ARG_OF_PERICENTER": 342.5317, "MEAN_ANOMALY": 17.0865, "EPHEMERIS_TYPE": 0, "CLASSIFICATION_TYPE": "U", "NORAD_CAT_ID": 30359, "ELEMENT_SET_NO": 999, "REV_AT_EPOCH": 95069, "BSTAR": 0.0033741348, "MEAN_MOTION_DOT": 4.809e-05, "MEAN_MOTION_DDOT": 0}, "tle": {"line1": "1 30359U 99025ABW 25346.75389039  .00004809  00000+0  33741-2 0  9999", "line2": "2 30359 101.6274 172.4596 0145336 342.5317  17.0865 13.94000440950695"}}, "geometry": {"type": "Point", "coordinates": [-19.369608988367897, -48.79137749403767]}}, {"type": "Feature", "properties": {"norad_id": 30360, "name": "FENGYUN 1C DEB", "group": "fengyun-1c-debris", "lat": 47.88498809644291, "lon": 47.93724610776946, "alt_km": 800.4051267060531, "timestamp": "2025-12-14T03:55:53.063277+00:00", "meta": {"OBJECT_NAME": "FENGYUN 1C DEB", "OBJECT_ID": "1999-025ABX", "EPOCH": "2025-12-11T03:36:10.327392", "MEAN_MOTION": 14.26482195, "ECCENTRICITY": 0.00314589, "INCLINATION": 98.765, "RA_OF_ASC_NODE": 54.747, "ARG_OF_PERICENTER": 150.9979, "MEAN_ANOMALY": 270.3357, "EPHEMERIS_TYPE": 0, "CLASSIFICATION_TYPE": "U", "NORAD_CAT_ID": 30360, "ELEMENT_SET_NO": 999, "REV_AT_EPOCH": 97402, "BSTAR": 0.0024281333, "MEAN_MOTION_DOT": 5.839e-05, "MEAN_MOTION_DDOT": 0}, "tle": {"line1": "1 30360U 99025ABX 25345.15011953  .00005839  00000+0  24281-2 0  9994", "line2": "2 30360  98.7650  54.7470 0031458 150.9979 270.3357 14.26482195974028"}}, "geometry": {"type": "Point", "coordinates": [47.93724610776946, 47.88498809644291]}}, {"type": "Feature", "properties": {"norad_id": 30361, "name": "FENGYUN 1C DEB", "group": "fengyun-1c-debris", "lat": 34.8882385509587, "lon": -149.9059083153552, "alt_km": 826.6757652854631, "timestamp": "2025-12-14T03:55:53.063287+00:00", "meta": {"OBJECT_NAME": "FENGYUN 1C DEB", "OBJECT_ID": "1999-025ABY", "EPOCH": "2025-12-12T00:43:04.700064", "MEAN_MOTION": 14.25349867, "ECCENTRICITY": 0.0065292, "INCLINATION": 98.5693, "RA_OF_ASC_NODE": 21.9741, "ARG_OF_PERICENTER": 32.8327, "MEAN_ANOMALY": 327.6883, "EPHEMERIS_TYPE": 0, "CLASSIFICATION_TYPE": "U", "NORAD_CAT_ID": 30361, "ELEMENT_SET_NO": 999, "REV_AT_EPOCH": 97606, "BSTAR": 0.0013333, "MEAN_MOTION_DOT": 3.171e-05, "MEAN_MOTION_DDOT": 0}, "tle": {"line1": "1 30361U 99025ABY 25346.02991551  .00003171  00000+0  13333-2 0  9996", "line2": "2 30361  98.5693  21.9741 0065292  32.8327 327.6883 14.25349867976062"}}, "geometry": {"type": "Point", "coordinates": [-149.9059083153552, 34.8882385509587]}}, {"type": "Feature", "properties": {"norad_id": 30362, "name": "FENGYUN 1C DEB", "group": "fengyun-1c-debris", "lat": 77.3092843964019, "lon": -134.06102003341152, "alt_km": 858.8798394374908, "timestamp": "2025-12-14T03:55:53.063297+00:00", "meta": {"OBJECT_NAME": "FENGYUN 1C DEB", "OBJECT_ID": "1999-025ABZ", "EPOCH": "2025-12-12T17:32:07.663200", "MEAN_MOTION": 14.11828808, "ECCENTRICITY": 0.00958156, "INCLINATION": 99.048, "RA_OF_ASC_NODE": 269.5336, "ARG_OF_PERICENTER": 343.6539, "MEAN_ANOMALY": 16.1548, "EPHEMERIS_TYPE": 0, "CLASSIFICATION_TYPE": "U", "NORAD_CAT_ID": 30362, "ELEMENT_SET_NO": 999, "REV_AT_EPOCH": 96168, "BSTAR": 0.0038734582, "MEAN_MOTION_DOT": 7.341e-05, "MEAN_MOTION_DDOT": 0}, "tle": {"line1": "1 30362U 99025ABZ 25346.73064425  .00007341  00000+0  38735-2 0  9992", "line2": "2 30362  99.0480 269.5336 0095815 343.6539  16.1548 14.11828808961687"}}, "geometry": {"type": "Point", "coordinates": [-134.06102003341152, 77.3092843964019]}}, {"type": "Feature", "properties": {"norad_id": 30363, "name": "FENGYUN 1C DEB", "group": "fengyun-1c-debris", "lat": -1.1914035460940975, "lon": 59.511677896262846, "alt_km": 792.7862652808399, "timestamp": "2025-12-14T03:55:53.063307+00:00", "meta": {"OBJECT_NAME": "FENGYUN 1C DEB", "OBJECT_ID": "1999-025ACA", "EPOCH": "2025-12-13T04:12:35.878464", "MEAN_MOTION": 14.16879877, "ECCENTRICITY": 0.00792042, "INCLINATION": 99.0309, "RA_OF_ASC_NODE": 58.319, "ARG_OF_PERICENTER": 38.0991, "MEAN_ANOMALY": 322.5747, "EPHEMERIS_TYPE": 0, "CLASSIFICATION_TYPE": "U", "NORAD_CAT_ID": 30363, "ELEMENT_SET_NO": 999, "REV_AT_EPOCH": 96830, "BSTAR": 0.0019947895, "MEAN_MOTION_DOT": 4.081e-05, "MEAN_MOTION_DDOT": 0}, "tle": {"line1": "1 30363U 99025ACA 25347.17541526  .00004081  00000+0  19948-2 0  9997", "line2": "2 30363  99.0309  58.3190 0079204  38.0991 322.5747 14.16879877968309"}}, "geometry": {"type": "Point", "coordinates": [59.511677896262846, -1.1914035460940975]}}, {"type": "Feature", "properties": {"norad_id": 30364, "name": "FENGYUN 1C DEB", "group": "fengyun-1c-debris", "lat": 55.949364753397056, "lon": 96.61060683412194, "alt_km": 1062.6502617630676, "timestamp": "2025-12-14T03:55:53.063317+00:00", "meta": {"OBJECT_NAME": "FENGYUN 1C DEB", "OBJECT_ID": "1999-025ACB", "EPOCH": "2025-12-12T17:35:42.432000", "MEAN_MOTION": 14.17109576, "ECCENTRICITY": 0.03323839, "INCLINATION": 98.1361, "RA_OF_ASC_NODE": 263.0771, "ARG_OF_PERICENTER": 320.4221, "MEAN_ANOMALY": 67.1298, "EPHEMERIS_TYPE": 0, "CLASSIFICATION_TYPE": "U", "NORAD_CAT_ID": 30364, "ELEMENT_SET_NO": 999, "REV_AT_EPOCH": 95641, "BSTAR": 0.0045922766, "MEAN_MOTION_DOT": 0.00015928, "MEAN_MOTION_DDOT": 0}, "tle": {"line1": "1 30364U 99025ACB 25346.73313000  .00015928  00000+0  45923-2 0  9997", "line2": "2 30364  98.1361 263.0771 0332383 320.4221  67.1298 14.17109576956417"}}, "geometry": {"type": "Point", "coordinates": [96.61060683412194, 55.949364753397056]}}, {"type": "Feature", "properties": {"norad_id": 30365, "name": "FENGYUN 1C DEB", "group": "fengyun-1c-debris", "lat": -34.68339466559726, "lon": -11.468536886223637, "alt_km": 929.2011768089751, "timestamp": "2025-12-14T03:55:53.063327+00:00", "meta": {"OBJECT_NAME": "FENGYUN 1C DEB", "OBJECT_ID": "1999-025ACC", "EPOCH": "2025-12-12T20:29:45.156768", "MEAN_MOTION": 14.19229636, "ECCENTRICITY": 0.01679576, "INCLINATION": 98.6192, "RA_OF_ASC_NODE": 341.2319, "ARG_OF_PERICENTER": 111.0781, "MEAN_ANOMALY": 6.7133, "EPHEMERIS_TYPE": 0, "CLASSIFICATION_TYPE": "U", "NORAD_CAT_ID": 30365, "ELEMENT_SET_NO": 999, "REV_AT_EPOCH": 97614, "BSTAR": 0.00029229881, "MEAN_MOTION_DOT": 6.63e-06, "MEAN_MOTION_DDOT": 0}, "tle": {"line1": "1 30365U 99025ACC 25346.85399487  .00000663  00000+0  29230-3 0  9998", "line2": "2 30365  98.6192 341.2319 0167957 111.0781   6.7133 14.19229636976141"}}, "geometry": {"type": "Point", "coordinates": [-11.468536886223637, -34.68339466559726]}}, {"type": "Feature", "properties": {"norad_id": 30366, "name": "FENGYUN 1C DEB", "group": "fengyun-1c-debris", "lat": 52.72466052396615, "lon": 97.60824764731336, "alt_km": 773.9061949173647, "timestamp": "2025-12-14T03:55:53.063338+00:00", "meta": {"OBJECT_NAME": "FENGYUN 1C DEB", "OBJECT_ID": "1999-025ACD", "EPOCH": "2025-12-13T07:48:41.577408", "MEAN_MOTION": 14.33492287, "ECCENTRICITY": 0.00620189, "INCLINATION": 98.9228, "RA_OF_ASC_NODE": 264.8321, "ARG_OF_PERICENTER": 217.549, "MEAN_ANOMALY": 265.6369, "EPHEMERIS_TYPE": 0, "CLASSIFICATION_TYPE": "U", "NORAD_CAT_ID": 30366, "ELEMENT_SET_NO": 999, "REV_AT_EPOCH": 98331, "BSTAR": 0.0008712615, "MEAN_MOTION_DOT": 2.414e-05, "MEAN_MOTION_DDOT": 0}, "tle": {"line1": "1 30366U 99025ACD 25347.32548122  .00002414  00000+0  87126-3 0  9998", "line2": "2 30366  98.9228 264.8321 0062018 217.5490 265.6369 14.33492287983313"}}, "geometry": {"type": "Point", "coordinates": [97.60824764731336, 52.72466052396615]}}, {"type": "Feature", "properties": {"norad_id": 30368, "name": "FENGYUN 1C DEB", "group": "fengyun-1c-debris", "lat": 77.20167696839918, "lon": -40.52550651194079, "alt_km": 1096.3116420521155, "timestamp": "2025-12-14T03:55:53.063348+00:00", "meta": {"OBJECT_NAME": "FENGYUN 1C DEB", "OBJECT_ID": "1999-025ACF", "EPOCH": "2025-12-12T13:05:40.362720", "MEAN_MOTION": 13.75365067, "ECCENTRICITY": 0.01860445, "INCLINATION": 99.1885, "RA_OF_ASC_NODE": 92.4748, "ARG_OF_PERICENTER": 308.5559, "MEAN_ANOMALY": 61.476, "EPHEMERIS_TYPE": 0, "CLASSIFICATION_TYPE": "U", "NORAD_CAT_ID": 30368, "ELEMENT_SET_NO": 999, "REV_AT_EPOCH": 94659, "BSTAR": 0.00064502313, "MEAN_MOTION_DOT": 6.59e-06, "MEAN_MOTION_DDOT": 0}, "tle": {"line1": "1 30368U 99025ACF 25346.54560605  .00000659  00000+0  64502-3 0  9995", "line2": "2 30368  99.1885  92.4748 0186044 308.5559  61.4760 13.75365067946594"}}, "geometry": {"type": "Point", "coordinates": [-40.52550651194079, 77.20167696839918]}}]}